SL-3 R/B                
1 19046U 88032B   17046.16503840 -.00000062  00000-0 -11193-7 0  9998
2 19046  97.5438  96.5032 0039691  23.8154 336.4896 15.02119505554321
SL-16 R/B               
1 19120U 88039B   17045.80046966 -.00000011  00000-0  17470-4 0  9993
2 19120  71.0118 223.5182 0021290   9.9517 350.2025 14.19165961489024
COSMOS 1953             
1 19210U 88050A   17046.44002787  .00000776  00000-0  52398-4 0  9995
2 19210  82.5200 151.4181 0012446 319.6533  40.3769 15.05141203559527
SL-8 R/B                
1 19257U 88053B   17046.20432762  .00000004  00000-0  10046-4 0  9991
2 19257  74.0477  80.7931 0020455 357.9979  64.5601 14.37344905501242
COSMOS 1975             
1 19573U 88093A   17046.52771259 -.00000058  00000-0 -63072-5 0  9997
2 19573  82.5195 103.1865 0014153   0.1717 359.9511 15.04041707541520
SL-14 R/B               
1 19574U 88093B   17046.56304219  .00000061  00000-0  44792-5 0  9990
2 19574  82.5296 258.7696 0022300 153.9915 236.1803 14.83202178531427
SL-16 R/B               
1 19650U 88102B   17046.12944299 -.00000204  00000-0 -79254-4 0  9997
2 19650  70.9987 271.7507 0014187 358.9145   1.1944 14.15753250458715
INTERCOSMOS 24          
1 20261U 89080A   17046.20925881  .00000043  00000-0  67033-5 0  9990
2 20261  82.5902  88.9945 1204685  18.1200 345.9206 12.55855992250658
SL-14 R/B               
1 20262U 89080C   17045.84910810  .00000099  00000-0  23589-4 0  9994
2 20262  82.5950 134.4529 1237907 175.4388 185.9354 12.48847745246441
DELTA 1 R/B             
1 20323U 89089B   17046.44736322  .00000038  00000-0  18692-4 0  9994
2 20323  97.0939  11.6117 0073374 103.0991 257.8408 14.48176081437102
DELTA 2 R/B(1)          
1 20453U 90008B   17045.92108477  .00001010  00000-0  59943-4 0  9992
2 20453  35.6254 228.4413 0291409 231.7120 125.7049 14.82829211430043
COSMOS 2058             
1 20465U 90010A   17045.93652655  .00000288  00000-0  22372-4 0  9993
2 20465  82.4912   5.3881 0015450 352.6504   7.4490 14.97425703445931
SL-14 R/B               
1 20466U 90010B   17046.51199621  .00000074  00000-0  64597-5 0  9997
2 20466  82.5044 126.4623 0021049  22.3879 337.8248 14.81265413459484
SL-14 R/B               
1 20511U 90018B   17046.55188315  .00000035  00000-0  15672-5 0  9995
2 20511  82.5204  67.3848 0018314 147.7538 328.7945 14.79924428454078
HST                     
1 20580U 90037B   17046.43653823  .00000548  00000-0  22886-4 0  9993
2 20580  28.4702  91.9682 0002538 307.6436 153.0467 15.08670753271875
SL-16 R/B               
1 20625U 90046B   17045.45239117  .00000133  00000-0  94109-4 0  9997
2 20625  70.9993  46.7313 0016481 290.5568  69.3786 14.14614773380472
COSMOS 2084             
1 20663U 90055A   17046.14189398  .00000090  00000-0  25509-4 0  9991
2 20663  62.7915 275.4434 0139056  78.0474 283.6170 14.91477323441605
SL-6 R/B(2)             
1 20666U 90055D   17045.83039839  .00000092  00000-0  25599-4 0  9994
2 20666  62.7830 195.5964 0135866  97.1040 264.5525 14.91832801442924
SL-8 R/B                
1 20775U 90078B   17046.23276208  .00001613  00000-0  79665-4 0  9991
2 20775  82.9319 148.1195 0591068 357.8899   1.9797 14.30043304331330
SL-8 R/B                
1 21088U 91006B   17045.78700363  .00000078  00000-0  63721-4 0  9994
2 21088  82.9421 111.2411 0021227 304.8327 186.0323 13.77037592308759
OKEAN-3                 
1 21397U 91039A   17046.16834146  .00000200  00000-0  17024-4 0  9995
2 21397  82.5194 254.3022 0016576 287.0201  72.9203 14.92410368391583
COSMOS 2151             
1 21422U 91042A   17045.92207370  .00000192  00000-0  16539-4 0  9994
2 21422  82.5022   2.7893 0013986 349.5147  10.5778 14.91773789369193
SL-14 R/B               
1 21423U 91042B   17045.66269539  .00000085  00000-0  83213-5 0  9996
2 21423  82.4915  75.9189 0016192 293.9275  66.0242 14.79677401363422
ERS-1                   
1 21574U 91050A   17045.90511485  .00000068  00000-0  36888-4 0  9995
2 21574  98.4464 355.0978 0032417 322.0750  37.8154 14.37559612340030
ARIANE 40 R/B           
1 21610U 91050F   17045.82390341 -.00000003  00000-0  13351-4 0  9993
2 21610  98.6226 101.5310 0002291 324.3008 166.1920 14.40781638342499
INTERCOSMOS 25          
1 21819U 91086A   17046.34459213 -.00000226  00000-0 -46281-4 0  9991
2 21819  82.5504 136.3352 1526221 346.2617  10.0913 12.04401571 97610
SL-14 R/B               
1 21820U 91086B   17045.93812671  .00000288  00000-0  52647-4 0  9997
2 21820  82.5616 190.5711 1577558 170.2990 193.2800 11.93269439 92206
SL-8 R/B                
1 21876U 92008B   17045.93937084 -.00000030  00000-0 -46427-4 0  9995
2 21876  82.9258 208.0533 0035024  17.5172 147.8968 13.75593609254347
SL-8 R/B                
1 21938U 92020B   17045.70001146 -.00000019  00000-0 -35413-4 0  9994
2 21938  82.9277  91.4101 0029484 171.2466 328.6100 13.75258939246150
SL-16 R/B               
1 22220U 92076B   17046.23007146  .00000247  00000-0  14802-3 0  9994
2 22220  71.0015 315.9630 0010670 101.1423  10.9148 14.16410165253504
SL-16 R/B               
1 22285U 92093B   17046.22048508 -.00000073  00000-0 -13319-4 0  9992
2 22285  71.0210 108.1389 0006069 297.4905  62.5600 14.15002841245285
COSMOS 2228             
1 22286U 92094A   17046.37112598  .00000246  00000-0  24238-4 0  9993
2 22286  82.5225 128.9576 0021201 162.0289 198.1683 14.87607961304381
SL-16 R/B               
1 22566U 93016B   17046.18685087 -.00000289  00000-0 -12487-3 0  9997
2 22566  71.0091 323.0118 0012106 310.1714  49.8348 14.14942120234010
COSMOS 2242             
1 22626U 93024A   17045.85189889  .00000196  00000-0  18742-4 0  9991
2 22626  82.5244 157.1469 0019667 162.8224 197.3663 14.87606987287662
SL-16 R/B               
1 22803U 93059B   17046.50393637  .00000032  00000-0  39708-4 0  9991
2 22803  70.9912 145.8508 0018581 217.2923 142.6912 14.16765796211040
ARIANE 40 R/B           
1 22830U 93061H   17046.16261272 -.00000093  00000-0 -17560-4 0  9996
2 22830  98.8890  58.7460 0009925 286.0474 115.5558 14.31411142220797
COSMOS 2278             
1 23087U 94023A   17045.79600954 -.00000242  00000-0 -10314-3 0  9997
2 23087  71.0523 254.7799 0007575  25.1176 335.0314 14.13741834176952
SL-16 R/B               
1 23088U 94023B   17045.87456263 -.00000177  00000-0 -67352-4 0  9991
2 23088  71.0005 178.7703 0005819 280.1984  79.8482 14.14654799177973
SL-16 R/B               
1 23343U 94074B   17045.96472381 -.00000037  00000-0  22942-5 0  9991
2 23343  98.1689  81.7301 0008241 103.1795 303.1198 14.76687960198589
SL-16 R/B               
1 23405U 94077B   17046.49122528  .00000249  00000-0  15268-3 0  9992
2 23405  70.9833 111.2647 0002414 200.7225 159.3800 14.15193741148293
ERS-2                   
1 23560U 95021A   17046.48227532  .00001279  00000-0  63014-4 0  9991
2 23560  98.5453  22.5774 0004053  18.5489 341.5890 15.20217084156895
ARIANE 40+ R/B          
1 23561U 95021B   17045.92480412  .00000019  00000-0  21690-4 0  9993
2 23561  98.7893  44.3192 0005896 259.6596 134.8700 14.37795047143464
SL-16 R/B               
1 23705U 95058B   17045.94922687 -.00000235  00000-0 -96436-4 0  9992
2 23705  71.0220 285.4975 0010573 131.8885 228.3141 14.15096912 99592
SL-16 R/B               
1 24298U 96051B   17046.13311638  .00000081  00000-0  69885-4 0  9999
2 24298  70.8500 319.3113 0014589 351.9413   8.1470 14.12478642 54582
ORBVIEW 2 (SEASTAR)     
1 24883U 97037A   17045.88891791  .00000034  00000-0  28103-4 0  9994
2 24883  98.5319 156.2411 0003480 106.0066 254.1502 14.33370108 34136
SL-16 R/B               
1 25400U 98043G   17045.86385893 -.00000006  00000-0  15370-4 0  9999
2 25400  98.4740 358.0893 0008823 297.1688  62.8593 14.25403246967649
SL-16 R/B               
1 25407U 98045B   17046.13053771 -.00000210  00000-0 -82690-4 0  9993
2 25407  71.0122 297.9304 0006804  15.2847 344.8480 14.15760234958907
ISS (ZARYA)             
1 25544U 98067A   17046.65191284  .00002561  00000-0  45561-4 0  9993
2 25544  51.6441 284.1656 0007093 192.6459 276.4202 15.54370541 42857
SL-8 R/B                
1 25723U 99022C   17046.14082529  .00004074  00000-0  72785-4 0  9998
2 25723  48.4170  97.3261 0009850 172.5300 187.5793 15.52287961987520
CZ-4B R/B               
1 25732U 99025C   17046.14795851 -.00000045  00000-0 -33574-7 0  9992
2 25732  98.9887  46.4306 0038387  78.9982 342.9547 14.17625359919348
OKEAN-O                 
1 25860U 99039A   17045.88447726  .00000049  00000-0  14639-4 0  9994
2 25860  98.1745  29.1687 0001511 109.3940 250.7432 14.76447334945783
SL-16 R/B               
1 25861U 99039B   17045.86500802  .00000027  00000-0  11047-4 0  9994
2 25861  98.0896  16.4638 0016938 113.5663 276.9037 14.78385547947707
TERRA                   
1 25994U 99068A   17046.31634301 -.00000081  00000-0 -80197-5 0  9991
2 25994  98.1968 123.0486 0001113  91.4472 268.6842 14.57115620912920
SL-14 R/B               
1 26874U 01032B   17045.94131551  .00060179  25872-6  11504-3 0  9996
2 26874  82.4538  12.7184 0003822  45.3921 314.7668 16.00442730874192
ENVISAT                 
1 27386U 02009A   17046.54014764  .00000005  00000-0  15551-4 0  9992
2 27386  98.2493  96.7915 0001048  86.7871 273.3441 14.37888381783597
IDEFIX & ARIANE 42P R/B 
1 27422U 02021B   17046.13733001 -.00000062  00000-0 -84725-5 0  9999
2 27422  98.2288  53.1699 0011294 235.7837 124.2277 14.29251607769241
AQUA                    
1 27424U 02022A   17045.86813514  .00000100  00000-0  32343-4 0  9998
2 27424  98.2262 348.9531 0001821 103.1372 325.1629 14.57100330786410
CZ-4B R/B               
1 27432U 02024C   17046.54592782 -.00000010  00000-0  18100-4 0  9992
2 27432  98.9727  19.5136 0050852  17.6957  91.3729 14.14035827761608
MIDORI II (ADEOS-II)    
1 27597U 02056A   17046.49235643  .00000048  00000-0  36386-4 0  9999
2 27597  98.3543  21.3224 0001152  37.6163 322.5099 14.27266877738067
